{"type": "FeatureCollection", "features": [ {"type": "Feature", "properties": {"norad_id": 61182, "name": "GSAT0232 (GALILEO 32)", "group": "gnss", "lat": -43.08143152085874, "lon": -174.2531140210463, "alt_km": 23227.91674076503, "timestamp": "2025-12-20T20:38:44.687005+00:00", "meta": {"OBJECT_NAME": "GSAT0232 (GALILEO 32)", "OBJECT_ID": "2024-167A", "EPOCH": "2025-12-20T01:45:16.724736", "MEAN_MOTION": 1.70473657, "ECCENTRICITY": 0.00018786, "INCLINATION": 55.2386, "RA_OF_ASC_NODE": 226.2297, "ARG_OF_PERICENTER": 206.8342, "MEAN_ANOMALY": 333.9154, "EPHEMERIS_TYPE": 0, "CLASSIFICATION_TYPE": "U", "NORAD_CAT_ID": 61182, "ELEMENT_SET_NO": 999, "REV_AT_EPOCH": 782, "BSTAR": 0, "MEAN_MOTION_DOT": 7e-07, "MEAN_MOTION_DDOT": 0}, "tle": {"line1": "1 61182U 24167A   25354.07311024  .00000070  00000+0  00000+0 0  9990", "line2": "2 61182  55.2386 226.2297 0001878 206.8342 333.9154  1.70473657  7823"}}, "geometry": {"type": "Point", "coordinates": [-174.2531140210463, -43.08143152085874]}}, {"type": "Feature", "properties": {"norad_id": 61183, "name": "GSAT0226 (GALILEO 31)", "group": "gnss", "lat": 43.16233085317169, "lon": -93.15339977405395, "alt_km": 23214.921686030906, "timestamp": "2025-12-20T20:38:44.687019+00:00", "meta": {"OBJECT_NAME": "GSAT0226 (GALILEO 31)", "OBJECT_ID": "2024-167B", "EPOCH": "2025-12-20T15:24:14.830848", "MEAN_MOTION": 1.70473754, "ECCENTRICITY": 0.00011201, "INCLINATION": 55.2371, "RA_OF_ASC_NODE": 226.2196, "ARG_OF_PERICENTER": 107.1344, "MEAN_ANOMALY": 175.3163, "EPHEMERIS_TYPE": 0, "CLASSIFICATION_TYPE": "U", "NORAD_CAT_ID": 61183, "ELEMENT_SET_NO": 999, "REV_AT_EPOCH": 780, "BSTAR": 0, "MEAN_MOTION_DOT": 7.2e-07, "MEAN_MOTION_DDOT": 0}, "tle": {"line1": "1 61183U 24167B   25354.64183832  .00000072  00000+0  00000+0 0  9990", "line2": "2 61183  55.2371 226.2196 0001120 107.1344 175.3163  1.70473754  7805"}}, "geometry": {"type": "Point", "coordinates": [-93.15339977405395, 43.16233085317169]}}, {"type": "Feature", "properties": {"norad_id": 61186, "name": "BEIDOU-3 M25 (C47)", "group": "gnss", "lat": 32.18859649755352, "lon": 101.8895449018534, "alt_km": 21538.544507770566, "timestamp": "2025-12-20T20:38:44.687032+00:00", "meta": {"OBJECT_NAME": "BEIDOU-3 M25 (C47)", "OBJECT_ID": "2024-168B", "EPOCH": "2025-12-20T04:50:33.841248", "MEAN_MOTION": 1.86230266, "ECCENTRICITY": 0.00054523, "INCLINATION": 54.6355, "RA_OF_ASC_NODE": 308.462, "ARG_OF_PERICENTER": 299.4821, "MEAN_ANOMALY": 118.2458, "EPHEMERIS_TYPE": 0, "CLASSIFICATION_TYPE": "U", "NORAD_CAT_ID": 61186, "ELEMENT_SET_NO": 999, "REV_AT_EPOCH": 845, "BSTAR": 0, "MEAN_MOTION_DOT": -7.1e-07, "MEAN_MOTION_DDOT": 0}, "tle": {"line1": "1 61186U 24168B   25354.20178057 -.00000071  00000+0  00000+0 0  9999", "line2": "2 61186  54.6355 308.4620 0005452 299.4821 118.2458  1.86230266  8456"}}, "geometry": {"type": "Point", "coordinates": [101.8895449018534, 32.18859649755352]}}, {"type": "Feature", "properties": {"norad_id": 61187, "name": "BEIDOU-3 M27 (C49)", "group": "gnss", "lat": -54.42922827427532, "lon": -134.47174085006847, "alt_km": 21531.018939794434, "timestamp": "2025-12-20T20:38:44.687044+00:00", "meta": {"OBJECT_NAME": "BEIDOU-3 M27 (C49)", "OBJECT_ID": "2024-168C", "EPOCH": "2025-12-20T01:43:20.217792", "MEAN_MOTION": 1.8623042, "ECCENTRICITY": 0.00025185, "INCLINATION": 54.631, "RA_OF_ASC_NODE": 308.4501, "ARG_OF_PERICENTER": 339.7234, "MEAN_ANOMALY": 125.7801, "EPHEMERIS_TYPE": 0, "CLASSIFICATION_TYPE": "U", "NORAD_CAT_ID": 61187, "ELEMENT_SET_NO": 999, "REV_AT_EPOCH": 592, "BSTAR": 0, "MEAN_MOTION_DOT": -7.2e-07, "MEAN_MOTION_DDOT": 0}, "tle": {"line1": "1 61187U 24168C   25354.07176178 -.00000072  00000+0  00000+0 0  9998", "line2": "2 61187  54.6310 308.4501 0002518 339.7234 125.7801  1.86230420  5928"}}, "geometry": {"type": "Point", "coordinates": [-134.47174085006847, -54.42922827427532]}}, {"type": "Feature", "properties": {"norad_id": 62339, "name": "GPS BIII-7  (PRN 01)", "group": "gnss", "lat": 3.412183430147387, "lon": -16.19897084530441, "alt_km": 20150.190665259917, "timestamp": "2025-12-20T20:38:44.687055+00:00", "meta": {"OBJECT_NAME": "GPS BIII-7  (PRN 01)", "OBJECT_ID": "2024-242A", "EPOCH": "2025-12-18T08:46:28.895808", "MEAN_MOTION": 2.00568182, "ECCENTRICITY": 0.0012509, "INCLINATION": 54.922, "RA_OF_ASC_NODE": 341.5124, "ARG_OF_PERICENTER": 345.6877, "MEAN_ANOMALY": 17.1618, "EPHEMERIS_TYPE": 0, "CLASSIFICATION_TYPE": "U", "NORAD_CAT_ID": 62339, "ELEMENT_SET_NO": 999, "REV_AT_EPOCH": 763, "BSTAR": 0, "MEAN_MOTION_DOT": -8.5e-07, "MEAN_MOTION_DDOT": 0}, "tle": {"line1": "1 62339U 24242A   25352.36561222 -.00000085  00000+0  00000+0 0  9993", "line2": "2 62339  54.9220 341.5124 0012509 345.6877  17.1618  2.00568182  7636"}}, "geometry": {"type": "Point", "coordinates": [-16.19897084530441, 3.412183430147387]}}, {"type": "Feature", "properties": {"norad_id": 62850, "name": "NVS-02 (IRNSS-1K)", "group": "gnss", "lat": 10.155377233965114, "lon": 116.87353263011501, "alt_km": 11646.98300578973, "timestamp": "2025-12-20T20:38:44.687066+00:00", "meta": {"OBJECT_NAME": "NVS-02 (IRNSS-1K)", "OBJECT_ID": "2025-020A", "EPOCH": "2025-12-20T08:38:20.194080", "MEAN_MOTION": 2.17600288, "ECCENTRICITY": 0.73473427, "INCLINATION": 20.9647, "RA_OF_ASC_NODE": 324.9017, "ARG_OF_PERICENTER": 31.1731, "MEAN_ANOMALY": 356.6243, "EPHEMERIS_TYPE": 0, "CLASSIFICATION_TYPE": "U", "NORAD_CAT_ID": 62850, "ELEMENT_SET_NO": 999, "REV_AT_EPOCH": 708, "BSTAR": 0.00012417411, "MEAN_MOTION_DOT": 1.29e-06, "MEAN_MOTION_DDOT": 0}, "tle": {"line1": "1 62850U 25020A   25354.35995595  .00000129  00000+0  12417-3 0  9998", "line2": "2 62850  20.9647 324.9017 7347342  31.1731 356.6243  2.17600288  7081"}}, "geometry": {"type": "Point", "coordinates": [116.87353263011501, 10.155377233965114]}}, {"type": "Feature", "properties": {"norad_id": 62876, "name": "QZS-6 (QZSS/PRN 200)", "group": "gnss", "lat": 0.058381667793653405, "lon": 129.90025684261, "alt_km": 35791.32916773701, "timestamp": "2025-12-20T20:38:44.687081+00:00", "meta": {"OBJECT_NAME": "QZS-6 (QZSS/PRN 200)", "OBJECT_ID": "2025-023A", "EPOCH": "2025-12-20T10:14:18.303072", "MEAN_MOTION": 1.00272437, "ECCENTRICITY": 0.00014847, "INCLINATION": 0.0492, "RA_OF_ASC_NODE": 69.2799, "ARG_OF_PERICENTER": 209.884, "MEAN_ANOMALY": 54.2159, "EPHEMERIS_TYPE": 0, "CLASSIFICATION_TYPE": "U", "NORAD_CAT_ID": 62876, "ELEMENT_SET_NO": 999, "REV_AT_EPOCH": 316, "BSTAR": 0, "MEAN_MOTION_DOT": -2.1e-06, "MEAN_MOTION_DDOT": 0}, "tle": {"line1": "1 62876U 25023A   25354.42660073 -.00000210  00000+0  00000+0 0  9990", "line2": "2 62876   0.0492  69.2799 0001484 209.8840  54.2159  1.00272437  3168"}}, "geometry": {"type": "Point", "coordinates": [129.90025684261, 0.058381667793653405]}}, {"type": "Feature", "properties": {"norad_id": 63130, "name": "COSMOS 2584 (704K)", "group": "gnss", "lat": 26.04760958847827, "lon": 92.05351111161218, "alt_km": 19146.33103283722, "timestamp": "2025-12-20T20:38:44.687092+00:00", "meta": {"OBJECT_NAME": "COSMOS 2584 (704K)", "OBJECT_ID": "2025-042A", "EPOCH": "2025-12-18T11:25:35.911776", "MEAN_MOTION": 2.13103072, "ECCENTRICITY": 0.00077091, "INCLINATION": 64.979, "RA_OF_ASC_NODE": 78.9506, "ARG_OF_PERICENTER": 218.5301, "MEAN_ANOMALY": 141.4378, "EPHEMERIS_TYPE": 0, "CLASSIFICATION_TYPE": "U", "NORAD_CAT_ID": 63130, "ELEMENT_SET_NO": 999, "REV_AT_EPOCH": 619, "BSTAR": 0, "MEAN_MOTION_DOT": -3.8e-07, "MEAN_MOTION_DDOT": 0}, "tle": {"line1": "1 63130U 25042A   25352.47611009 -.00000038  00000+0  00000+0 0  9991", "line2": "2 63130  64.9790  78.9506 0007709 218.5301 141.4378  2.13103072  6191"}}, "geometry": {"type": "Point", "coordinates": [92.05351111161218, 26.04760958847827]}}, {"type": "Feature", "properties": {"norad_id": 64202, "name": "GPS BIII-8  (PRN 21)", "group": "gnss", "lat": -10.846304179454012, "lon": -133.98775028262244, "alt_km": 20191.110912813343, "timestamp": "2025-12-20T20:38:44.687104+00:00", "meta": {"OBJECT_NAME": "GPS BIII-8  (PRN 21)", "OBJECT_ID": "2025-116A", "EPOCH": "2025-12-20T02:23:29.620896", "MEAN_MOTION": 2.00557984, "ECCENTRICITY": 0.00057225, "INCLINATION": 55.1107, "RA_OF_ASC_NODE": 38.344, "ARG_OF_PERICENTER": 309.6695, "MEAN_ANOMALY": 54.4969, "EPHEMERIS_TYPE": 0, "CLASSIFICATION_TYPE": "U", "NORAD_CAT_ID": 64202, "ELEMENT_SET_NO": 999, "REV_AT_EPOCH": 428, "BSTAR": 0, "MEAN_MOTION_DOT": -6.1e-07, "MEAN_MOTION_DDOT": 0}, "tle": {"line1": "1 64202U 25116A   25354.09964839 -.00000061  00000+0  00000+0 0  9992", "line2": "2 64202  55.1107  38.3440 0005722 309.6695  54.4969  2.00557984  4282"}}, "geometry": {"type": "Point", "coordinates": [-133.98775028262244, -10.846304179454012]}}, {"type": "Feature", "properties": {"norad_id": 65590, "name": "COSMOS 2596 (708K)", "group": "gnss", "lat": 29.154673857127552, "lon": 125.91176661545491, "alt_km": 19160.41874569602, "timestamp": "2025-12-20T20:38:44.687124+00:00", "meta": {"OBJECT_NAME": "COSMOS 2596 (708K)", "OBJECT_ID": "2025-206B", "EPOCH": "2025-12-20T10:17:47.285664", "MEAN_MOTION": 2.13100474, "ECCENTRICITY": 0.00140703, "INCLINATION": 64.7402, "RA_OF_ASC_NODE": 321.2078, "ARG_OF_PERICENTER": 307.0541, "MEAN_ANOMALY": 229.5313, "EPHEMERIS_TYPE": 0, "CLASSIFICATION_TYPE": "U", "NORAD_CAT_ID": 65590, "ELEMENT_SET_NO": 999, "REV_AT_EPOCH": 210, "BSTAR": 0, "MEAN_MOTION_DOT": -5.3e-07, "MEAN_MOTION_DDOT": 0}, "tle": {"line1": "1 65590U 25206B   25354.42901951 -.00000053  00000+0  00000+0 0  9997", "line2": "2 65590  64.7402 321.2078 0014070 307.0541 229.5313  2.13100474  2105"}}, "geometry": {"type": "Point", "coordinates": [125.91176661545491, 29.154673857127552]}}]}